<?xml version="1.0" encoding="UTF-8" standalone="no" ?><gpx xmlns="http://www.topografix.com/GPX/1/1" xmlns:gpxx="http://www.garmin.com/xmlschemas/GpxExtensions/v3" xmlns:wptx1="http://www.garmin.com/xmlschemas/WaypointExtension/v1" xmlns:gpxtpx="http://www.garmin.com/xmlschemas/TrackPointExtension/v1" creator="GPSMAP 78sc" version="1.1" xmlns:xsi="http://www.w3.org/2001/XMLSchema-instance" xsi:schemaLocation="http://www.topografix.com/GPX/1/1 http://www.topografix.com/GPX/1/1/gpx.xsd http://www.garmin.com/xmlschemas/GpxExtensions/v3 http://www8.garmin.com/xmlschemas/GpxExtensionsv3.xsd http://www.garmin.com/xmlschemas/TrackStatsExtension/v1 http://www8.garmin.com/xmlschemas/TrackStatsExtension.xsd http://www.garmin.com/xmlschemas/WaypointExtension/v1 http://www8.garmin.com/xmlschemas/WaypointExtensionv1.xsd http://www.garmin.com/xmlschemas/TrackPointExtension/v1 http://www.garmin.com/xmlschemas/TrackPointExtensionv1.xsd"><metadata><link href="http://www.garmin.com"><text>Garmin International</text></link><time>2024-06-13T19:43:38Z</time></metadata><wpt lat="20.899734" lon="-156.475716"><ele>25.766508</ele><time>2024-06-13T19:43:38Z</time><name>608</name><sym>Flag, Blue</sym></wpt><wpt lat="20.899710" lon="-156.475741"><ele>21.580523</ele><time>2024-06-13T19:44:56Z</time><name>609</name><sym>Flag, Blue</sym></wpt><wpt lat="20.899702" lon="-156.475766"><ele>28.445690</ele><time>2024-06-13T19:46:02Z</time><name>610</name><sym>Flag, Blue</sym></wpt><wpt lat="20.899683" lon="-156.475806"><ele>30.741167</ele><time>2024-06-13T19:47:07Z</time><name>611</name><sym>Flag, Blue</sym></wpt><wpt lat="20.899673" lon="-156.475843"><ele>32.345757</ele><time>2024-06-13T19:47:44Z</time><name>612</name><sym>Flag, Blue</sym></wpt><wpt lat="20.899656" lon="-156.475850"><ele>31.756229</ele><time>2024-06-13T19:48:22Z</time><name>613</name><sym>Flag, Blue</sym></wpt><wpt lat="20.899645" lon="-156.475883"><ele>30.523478</ele><time>2024-06-13T19:49:20Z</time><name>614</name><sym>Flag, Blue</sym></wpt><wpt lat="20.899637" lon="-156.475906"><ele>29.008253</ele><time>2024-06-13T19:50:03Z</time><name>615</name><sym>Flag, Blue</sym></wpt><wpt lat="20.899637" lon="-156.475937"><ele>32.464115</ele><time>2024-06-13T19:50:43Z</time><name>616</name><sym>Flag, Blue</sym></wpt><wpt lat="20.899623" lon="-156.475965"><ele>30.462694</ele><time>2024-06-13T19:51:29Z</time><name>617</name><sym>Flag, Blue</sym></wpt><wpt lat="20.899605" lon="-156.475999"><ele>36.668480</ele><time>2024-06-13T19:52:10Z</time><name>618</name><sym>Flag, Blue</sym></wpt><wpt lat="20.899601" lon="-156.476017"><ele>33.444534</ele><time>2024-06-13T19:52:46Z</time><name>619</name><sym>Flag, Blue</sym></wpt><wpt lat="20.777461" lon="-156.522321"><ele>6.773702</ele><time>2024-06-13T23:49:36Z</time><name>620</name><sym>Flag, Blue</sym></wpt><wpt lat="20.777425" lon="-156.522327"><ele>27.964600</ele><time>2024-06-14T00:14:14Z</time><name>621</name><sym>Flag, Blue</sym></wpt><wpt lat="20.777411" lon="-156.522315"><ele>24.392090</ele><time>2024-06-14T00:39:22Z</time><name>622</name><sym>Flag, Blue</sym></wpt><wpt lat="20.777401" lon="-156.522308"><ele>-362.484833</ele><time>2024-06-14T00:43:54Z</time><name>623</name><sym>Flag, Blue</sym></wpt><wpt lat="20.777373" lon="-156.522315"><ele>-698.149658</ele><time>2024-06-14T01:02:03Z</time><name>624</name><sym>Flag, Blue</sym></wpt><wpt lat="20.777361" lon="-156.522375"><ele>-2.760071</ele><time>2024-06-14T01:25:39Z</time><name>625</name><sym>Flag, Blue</sym></wpt><wpt lat="20.777339" lon="-156.522340"><ele>14.846550</ele><time>2024-06-14T01:48:06Z</time><name>626</name><sym>Flag, Blue</sym></wpt></gpx>