<?xml version="1.0" encoding="UTF-8" standalone="no" ?><gpx xmlns="http://www.topografix.com/GPX/1/1" xmlns:gpxx="http://www.garmin.com/xmlschemas/GpxExtensions/v3" xmlns:wptx1="http://www.garmin.com/xmlschemas/WaypointExtension/v1" xmlns:gpxtpx="http://www.garmin.com/xmlschemas/TrackPointExtension/v1" creator="GPSMAP 78sc" version="1.1" xmlns:xsi="http://www.w3.org/2001/XMLSchema-instance" xsi:schemaLocation="http://www.topografix.com/GPX/1/1 http://www.topografix.com/GPX/1/1/gpx.xsd http://www.garmin.com/xmlschemas/GpxExtensions/v3 http://www8.garmin.com/xmlschemas/GpxExtensionsv3.xsd http://www.garmin.com/xmlschemas/TrackStatsExtension/v1 http://www8.garmin.com/xmlschemas/TrackStatsExtension.xsd http://www.garmin.com/xmlschemas/WaypointExtension/v1 http://www8.garmin.com/xmlschemas/WaypointExtensionv1.xsd http://www.garmin.com/xmlschemas/TrackPointExtension/v1 http://www.garmin.com/xmlschemas/TrackPointExtensionv1.xsd"><metadata><link href="http://www.garmin.com"><text>Garmin International</text></link><time>2024-06-18T19:48:35Z</time></metadata><wpt lat="20.598648" lon="-156.419476"><ele>18.697922</ele><time>2024-06-18T19:48:35Z</time><name>793</name><sym>Flag, Blue</sym></wpt><wpt lat="20.598602" lon="-156.419371"><ele>37.483181</ele><time>2024-06-18T22:39:43Z</time><name>794</name><sym>Flag, Blue</sym></wpt><wpt lat="20.597891" lon="-156.418928"><ele>30.736349</ele><time>2024-06-18T22:41:50Z</time><name>795</name><sym>Flag, Blue</sym></wpt><wpt lat="20.597873" lon="-156.418923"><ele>29.414392</ele><time>2024-06-18T22:42:00Z</time><name>796</name><sym>Flag, Blue</sym></wpt></gpx>