<?xml version="1.0" encoding="UTF-8" standalone="no" ?><gpx xmlns="http://www.topografix.com/GPX/1/1" xmlns:gpxx="http://www.garmin.com/xmlschemas/GpxExtensions/v3" xmlns:wptx1="http://www.garmin.com/xmlschemas/WaypointExtension/v1" xmlns:gpxtpx="http://www.garmin.com/xmlschemas/TrackPointExtension/v1" creator="GPSMAP 78sc" version="1.1" xmlns:xsi="http://www.w3.org/2001/XMLSchema-instance" xsi:schemaLocation="http://www.topografix.com/GPX/1/1 http://www.topografix.com/GPX/1/1/gpx.xsd http://www.garmin.com/xmlschemas/GpxExtensions/v3 http://www8.garmin.com/xmlschemas/GpxExtensionsv3.xsd http://www.garmin.com/xmlschemas/TrackStatsExtension/v1 http://www8.garmin.com/xmlschemas/TrackStatsExtension.xsd http://www.garmin.com/xmlschemas/WaypointExtension/v1 http://www8.garmin.com/xmlschemas/WaypointExtensionv1.xsd http://www.garmin.com/xmlschemas/TrackPointExtension/v1 http://www.garmin.com/xmlschemas/TrackPointExtensionv1.xsd"><metadata><link href="http://www.garmin.com"><text>Garmin International</text></link><time>2024-06-14T18:37:34Z</time></metadata><wpt lat="20.826759" lon="-156.094951"><ele>35.866169</ele><time>2024-06-14T18:37:34Z</time><name>627</name><sym>Flag, Blue</sym></wpt><wpt lat="20.826744" lon="-156.094962"><ele>36.536961</ele><time>2024-06-14T18:38:28Z</time><name>628</name><sym>Flag, Blue</sym></wpt><wpt lat="20.826712" lon="-156.094931"><ele>35.252281</ele><time>2024-06-14T18:40:43Z</time><name>629</name><sym>Flag, Blue</sym></wpt><wpt lat="20.826703" lon="-156.094937"><ele>32.511009</ele><time>2024-06-14T18:46:56Z</time><name>630</name><sym>Flag, Blue</sym></wpt><wpt lat="20.826704" lon="-156.094900"><ele>30.748581</ele><time>2024-06-14T18:48:20Z</time><name>631</name><sym>Flag, Blue</sym></wpt><wpt lat="20.826693" lon="-156.094892"><ele>32.432194</ele><time>2024-06-14T18:48:56Z</time><name>632</name><sym>Flag, Blue</sym></wpt><wpt lat="20.826690" lon="-156.094884"><ele>29.578772</ele><time>2024-06-14T18:51:39Z</time><name>633</name><sym>Flag, Blue</sym></wpt><wpt lat="20.826661" lon="-156.094868"><ele>29.884005</ele><time>2024-06-14T18:52:48Z</time><name>634</name><sym>Flag, Blue</sym></wpt><wpt lat="20.826649" lon="-156.094869"><ele>29.074116</ele><time>2024-06-14T18:59:18Z</time><name>635</name><sym>Flag, Blue</sym></wpt><wpt lat="20.826620" lon="-156.094827"><ele>28.572327</ele><time>2024-06-14T19:00:09Z</time><name>636</name><sym>Flag, Blue</sym></wpt><wpt lat="20.826617" lon="-156.094859"><ele>28.825253</ele><time>2024-06-14T19:01:13Z</time><name>637</name><sym>Flag, Blue</sym></wpt><wpt lat="20.826593" lon="-156.094833"><ele>27.353981</ele><time>2024-06-14T19:07:08Z</time><name>638</name><sym>Flag, Blue</sym></wpt><wpt lat="20.826577" lon="-156.094815"><ele>26.988272</ele><time>2024-06-14T19:09:57Z</time><name>639</name><sym>Flag, Blue</sym></wpt><wpt lat="20.826556" lon="-156.094823"><ele>27.069839</ele><time>2024-06-14T19:10:22Z</time><name>640</name><sym>Flag, Blue</sym></wpt><wpt lat="20.826534" lon="-156.094825"><ele>27.429369</ele><time>2024-06-14T19:11:47Z</time><name>641</name><sym>Flag, Blue</sym></wpt><wpt lat="20.826535" lon="-156.094823"><ele>24.681370</ele><time>2024-06-14T19:17:03Z</time><name>642</name><sym>Flag, Blue</sym></wpt><wpt lat="20.826505" lon="-156.094816"><ele>25.778889</ele><time>2024-06-14T19:20:07Z</time><name>643</name><sym>Flag, Blue</sym></wpt><wpt lat="20.826488" lon="-156.094815"><ele>26.136080</ele><time>2024-06-14T19:20:40Z</time><name>644</name><sym>Flag, Blue</sym></wpt><wpt lat="20.826472" lon="-156.094800"><ele>26.768816</ele><time>2024-06-14T19:21:38Z</time><name>645</name><sym>Flag, Blue</sym></wpt><wpt lat="20.826704" lon="-156.094858"><ele>12.857563</ele><time>2024-06-14T19:50:16Z</time><name>646</name><sym>Flag, Blue</sym></wpt><wpt lat="20.682653" lon="-156.013748"><ele>18.552357</ele><time>2024-06-15T00:03:47Z</time><name>647</name><sym>Flag, Blue</sym></wpt><wpt lat="20.682680" lon="-156.013770"><ele>20.712347</ele><time>2024-06-15T00:31:51Z</time><name>648</name><sym>Flag, Blue</sym></wpt><wpt lat="20.682706" lon="-156.013784"><ele>27.468889</ele><time>2024-06-15T00:56:48Z</time><name>649</name><sym>Flag, Blue</sym></wpt><wpt lat="20.682753" lon="-156.013880"><ele>24.949160</ele><time>2024-06-15T01:18:26Z</time><name>650</name><sym>Flag, Blue</sym></wpt><wpt lat="20.682776" lon="-156.013966"><ele>21.501410</ele><time>2024-06-15T01:35:11Z</time><name>651</name><sym>Flag, Blue</sym></wpt></gpx>