<?xml version="1.0" encoding="UTF-8" standalone="no" ?><gpx xmlns="http://www.topografix.com/GPX/1/1" xmlns:gpxx="http://www.garmin.com/xmlschemas/GpxExtensions/v3" xmlns:wptx1="http://www.garmin.com/xmlschemas/WaypointExtension/v1" xmlns:gpxtpx="http://www.garmin.com/xmlschemas/TrackPointExtension/v1" creator="GPSMAP 78sc" version="1.1" xmlns:xsi="http://www.w3.org/2001/XMLSchema-instance" xsi:schemaLocation="http://www.topografix.com/GPX/1/1 http://www.topografix.com/GPX/1/1/gpx.xsd http://www.garmin.com/xmlschemas/GpxExtensions/v3 http://www8.garmin.com/xmlschemas/GpxExtensionsv3.xsd http://www.garmin.com/xmlschemas/TrackStatsExtension/v1 http://www8.garmin.com/xmlschemas/TrackStatsExtension.xsd http://www.garmin.com/xmlschemas/WaypointExtension/v1 http://www8.garmin.com/xmlschemas/WaypointExtensionv1.xsd http://www.garmin.com/xmlschemas/TrackPointExtension/v1 http://www.garmin.com/xmlschemas/TrackPointExtensionv1.xsd"><metadata><link href="http://www.garmin.com"><text>Garmin International</text></link><time>2024-06-16T18:39:45Z</time></metadata><wpt lat="20.635626" lon="-156.112087"><ele>27.845938</ele><time>2024-06-16T18:39:45Z</time><name>699</name><sym>Flag, Blue</sym></wpt><wpt lat="20.635615" lon="-156.112097"><ele>29.115835</ele><time>2024-06-16T18:40:17Z</time><name>700</name><sym>Flag, Blue</sym></wpt><wpt lat="20.635607" lon="-156.112090"><ele>30.283358</ele><time>2024-06-16T18:41:19Z</time><name>701</name><sym>Flag, Blue</sym></wpt><wpt lat="20.635599" lon="-156.112141"><ele>30.878078</ele><time>2024-06-16T18:42:13Z</time><name>702</name><sym>Flag, Blue</sym></wpt><wpt lat="20.635589" lon="-156.112143"><ele>27.940804</ele><time>2024-06-16T18:42:58Z</time><name>703</name><sym>Flag, Blue</sym></wpt><wpt lat="20.635570" lon="-156.112154"><ele>30.352203</ele><time>2024-06-16T18:43:21Z</time><name>704</name><sym>Flag, Blue</sym></wpt><wpt lat="20.635554" lon="-156.112161"><ele>30.534874</ele><time>2024-06-16T18:43:50Z</time><name>705</name><sym>Flag, Blue</sym></wpt><wpt lat="20.635546" lon="-156.112172"><ele>29.727806</ele><time>2024-06-16T18:44:26Z</time><name>706</name><sym>Flag, Blue</sym></wpt><wpt lat="20.635524" lon="-156.112181"><ele>17.791553</ele><time>2024-06-16T18:44:55Z</time><name>707</name><sym>Flag, Blue</sym></wpt><wpt lat="20.635511" lon="-156.112211"><ele>28.584682</ele><time>2024-06-16T18:45:19Z</time><name>708</name><sym>Flag, Blue</sym></wpt><wpt lat="20.635488" lon="-156.112201"><ele>32.208805</ele><time>2024-06-16T18:45:49Z</time><name>709</name><sym>Flag, Blue</sym></wpt><wpt lat="20.635477" lon="-156.112211"><ele>30.090588</ele><time>2024-06-16T18:46:26Z</time><name>710</name><sym>Flag, Blue</sym></wpt><wpt lat="20.635466" lon="-156.112230"><ele>32.639385</ele><time>2024-06-16T18:46:53Z</time><name>711</name><sym>Flag, Blue</sym></wpt><wpt lat="20.635446" lon="-156.112243"><ele>25.585285</ele><time>2024-06-16T18:47:10Z</time><name>712</name><sym>Flag, Blue</sym></wpt><wpt lat="20.635441" lon="-156.112253"><ele>28.030518</ele><time>2024-06-16T18:47:53Z</time><name>713</name><sym>Flag, Blue</sym></wpt><wpt lat="20.635429" lon="-156.112270"><ele>29.938732</ele><time>2024-06-16T18:48:18Z</time><name>714</name><sym>Flag, Blue</sym></wpt><wpt lat="20.635416" lon="-156.112279"><ele>29.380329</ele><time>2024-06-16T18:49:15Z</time><name>715</name><sym>Flag, Blue</sym></wpt><wpt lat="20.635400" lon="-156.112290"><ele>30.195484</ele><time>2024-06-16T18:49:39Z</time><name>716</name><sym>Flag, Blue</sym></wpt><wpt lat="20.635376" lon="-156.112312"><ele>30.219051</ele><time>2024-06-16T18:50:03Z</time><name>717</name><sym>Flag, Blue</sym></wpt><wpt lat="20.635384" lon="-156.112309"><ele>28.898340</ele><time>2024-06-16T18:50:47Z</time><name>718</name><sym>Flag, Blue</sym></wpt><wpt lat="20.635355" lon="-156.112342"><ele>24.938942</ele><time>2024-06-16T18:51:59Z</time><name>719</name><sym>Flag, Blue</sym></wpt><wpt lat="20.635343" lon="-156.112349"><ele>24.953043</ele><time>2024-06-16T18:52:03Z</time><name>720</name><sym>Flag, Blue</sym></wpt><wpt lat="20.635327" lon="-156.112369"><ele>24.774054</ele><time>2024-06-16T18:52:36Z</time><name>721</name><sym>Flag, Blue</sym></wpt><wpt lat="20.635319" lon="-156.112371"><ele>24.241344</ele><time>2024-06-16T18:53:14Z</time><name>722</name><sym>Flag, Blue</sym></wpt><wpt lat="20.635291" lon="-156.112395"><ele>28.628750</ele><time>2024-06-16T18:53:54Z</time><name>723</name><sym>Flag, Blue</sym></wpt><wpt lat="20.635288" lon="-156.112396"><ele>28.036961</ele><time>2024-06-16T18:54:24Z</time><name>724</name><sym>Flag, Blue</sym></wpt><wpt lat="20.635268" lon="-156.112419"><ele>24.447733</ele><time>2024-06-16T18:54:41Z</time><name>725</name><sym>Flag, Blue</sym></wpt><wpt lat="20.635270" lon="-156.112425"><ele>25.240334</ele><time>2024-06-16T18:55:03Z</time><name>726</name><sym>Flag, Blue</sym></wpt><wpt lat="20.635245" lon="-156.112428"><ele>25.680426</ele><time>2024-06-16T18:55:23Z</time><name>727</name><sym>Flag, Blue</sym></wpt><wpt lat="20.635232" lon="-156.112431"><ele>26.078428</ele><time>2024-06-16T18:56:13Z</time><name>728</name><sym>Flag, Blue</sym></wpt><wpt lat="20.635213" lon="-156.112459"><ele>27.438091</ele><time>2024-06-16T18:56:41Z</time><name>729</name><sym>Flag, Blue</sym></wpt><wpt lat="20.635200" lon="-156.112473"><ele>28.720432</ele><time>2024-06-16T18:57:05Z</time><name>730</name><sym>Flag, Blue</sym></wpt><wpt lat="20.635195" lon="-156.112494"><ele>30.855537</ele><time>2024-06-16T18:57:55Z</time><name>731</name><sym>Flag, Blue</sym></wpt><wpt lat="20.635183" lon="-156.112516"><ele>29.775366</ele><time>2024-06-16T18:58:10Z</time><name>732</name><sym>Flag, Blue</sym></wpt><wpt lat="20.635175" lon="-156.112513"><ele>30.212591</ele><time>2024-06-16T18:58:42Z</time><name>733</name><sym>Flag, Blue</sym></wpt><wpt lat="20.635165" lon="-156.112526"><ele>29.387163</ele><time>2024-06-16T18:59:11Z</time><name>734</name><sym>Flag, Blue</sym></wpt><wpt lat="20.635137" lon="-156.112532"><ele>29.131809</ele><time>2024-06-16T18:59:40Z</time><name>735</name><sym>Flag, Blue</sym></wpt><wpt lat="20.635136" lon="-156.112556"><ele>29.945013</ele><time>2024-06-16T19:00:09Z</time><name>736</name><sym>Flag, Blue</sym></wpt><wpt lat="20.635110" lon="-156.112565"><ele>29.310738</ele><time>2024-06-16T19:00:53Z</time><name>737</name><sym>Flag, Blue</sym></wpt><wpt lat="20.635113" lon="-156.112594"><ele>29.014280</ele><time>2024-06-16T19:01:44Z</time><name>738</name><sym>Flag, Blue</sym></wpt><wpt lat="20.635093" lon="-156.112617"><ele>28.863995</ele><time>2024-06-16T19:02:15Z</time><name>739</name><sym>Flag, Blue</sym></wpt><wpt lat="20.635082" lon="-156.112614"><ele>26.839502</ele><time>2024-06-16T19:02:41Z</time><name>740</name><sym>Flag, Blue</sym></wpt><wpt lat="20.635068" lon="-156.112636"><ele>28.608234</ele><time>2024-06-16T19:03:04Z</time><name>741</name><sym>Flag, Blue</sym></wpt><wpt lat="20.635047" lon="-156.112655"><ele>25.058495</ele><time>2024-06-16T19:03:39Z</time><name>742</name><sym>Flag, Blue</sym></wpt><wpt lat="20.635043" lon="-156.112669"><ele>26.210140</ele><time>2024-06-16T19:04:08Z</time><name>743</name><sym>Flag, Blue</sym></wpt><wpt lat="20.635033" lon="-156.112680"><ele>29.288765</ele><time>2024-06-16T19:05:03Z</time><name>744</name><sym>Flag, Blue</sym></wpt><wpt lat="20.635012" lon="-156.112680"><ele>27.231716</ele><time>2024-06-16T19:05:24Z</time><name>745</name><sym>Flag, Blue</sym></wpt><wpt lat="20.634999" lon="-156.112712"><ele>27.700653</ele><time>2024-06-16T19:05:58Z</time><name>746</name><sym>Flag, Blue</sym></wpt><wpt lat="20.634987" lon="-156.112726"><ele>28.813557</ele><time>2024-06-16T19:06:48Z</time><name>747</name><sym>Flag, Blue</sym></wpt><wpt lat="20.634975" lon="-156.112719"><ele>27.704876</ele><time>2024-06-16T19:07:20Z</time><name>748</name><sym>Flag, Blue</sym></wpt><wpt lat="20.633212" lon="-156.115137"><ele>21.648373</ele><time>2024-06-16T19:16:55Z</time><name>749</name><sym>Flag, Blue</sym></wpt><wpt lat="20.633190" lon="-156.115123"><ele>25.642046</ele><time>2024-06-16T19:17:28Z</time><name>750</name><sym>Flag, Blue</sym></wpt><wpt lat="20.633191" lon="-156.115143"><ele>25.414639</ele><time>2024-06-16T19:17:47Z</time><name>751</name><sym>Flag, Blue</sym></wpt><wpt lat="20.633152" lon="-156.115158"><ele>27.168768</ele><time>2024-06-16T19:18:49Z</time><name>752</name><sym>Flag, Blue</sym></wpt><wpt lat="20.633133" lon="-156.115172"><ele>28.696297</ele><time>2024-06-16T19:25:46Z</time><name>753</name><sym>Flag, Blue</sym></wpt><wpt lat="20.633117" lon="-156.115172"><ele>23.747585</ele><time>2024-06-16T19:27:02Z</time><name>754</name><sym>Flag, Blue</sym></wpt><wpt lat="20.633101" lon="-156.115190"><ele>23.593737</ele><time>2024-06-16T19:27:24Z</time><name>755</name><sym>Flag, Blue</sym></wpt><wpt lat="20.633073" lon="-156.115132"><ele>28.078985</ele><time>2024-06-16T19:29:11Z</time><name>756</name><sym>Flag, Blue</sym></wpt><wpt lat="20.633050" lon="-156.115182"><ele>25.140669</ele><time>2024-06-16T19:31:07Z</time><name>757</name><sym>Flag, Blue</sym></wpt><wpt lat="20.633035" lon="-156.115197"><ele>31.113886</ele><time>2024-06-16T19:32:21Z</time><name>758</name><sym>Flag, Blue</sym></wpt><wpt lat="20.633066" lon="-156.115207"><ele>31.087311</ele><time>2024-06-16T19:33:27Z</time><name>759</name><sym>Flag, Blue</sym></wpt><wpt lat="20.633066" lon="-156.115205"><ele>31.626141</ele><time>2024-06-16T19:34:32Z</time><name>760</name><sym>Flag, Blue</sym></wpt><wpt lat="20.633061" lon="-156.115240"><ele>28.568201</ele><time>2024-06-16T19:36:09Z</time><name>761</name><sym>Flag, Blue</sym></wpt><wpt lat="20.633085" lon="-156.115228"><ele>29.292654</ele><time>2024-06-16T19:36:34Z</time><name>762</name><sym>Flag, Blue</sym></wpt><wpt lat="20.633116" lon="-156.115265"><ele>28.436523</ele><time>2024-06-16T19:41:04Z</time><name>763</name><sym>Flag, Blue</sym></wpt><wpt lat="20.633100" lon="-156.115280"><ele>30.865396</ele><time>2024-06-16T19:42:47Z</time><name>764</name><sym>Flag, Blue</sym></wpt><wpt lat="20.633128" lon="-156.115280"><ele>30.070179</ele><time>2024-06-16T19:43:23Z</time><name>765</name><sym>Flag, Blue</sym></wpt><wpt lat="20.633114" lon="-156.115311"><ele>29.795883</ele><time>2024-06-16T19:44:06Z</time><name>766</name><sym>Flag, Blue</sym></wpt><wpt lat="20.633117" lon="-156.115324"><ele>29.609344</ele><time>2024-06-16T19:45:28Z</time><name>767</name><sym>Flag, Blue</sym></wpt><wpt lat="20.633103" lon="-156.115317"><ele>26.192179</ele><time>2024-06-16T19:54:49Z</time><name>768</name><sym>Flag, Blue</sym></wpt><wpt lat="20.633086" lon="-156.115360"><ele>28.669371</ele><time>2024-06-16T19:56:42Z</time><name>769</name><sym>Flag, Blue</sym></wpt><wpt lat="20.633072" lon="-156.115378"><ele>28.649157</ele><time>2024-06-16T19:56:47Z</time><name>770</name><sym>Flag, Blue</sym></wpt><wpt lat="20.777266" lon="-156.522670"><ele>23.649939</ele><time>2024-06-17T02:11:26Z</time><name>771</name><sym>Flag, Blue</sym></wpt><wpt lat="20.777275" lon="-156.522633"><ele>25.058683</ele><time>2024-06-17T02:40:14Z</time><name>772</name><sym>Flag, Blue</sym></wpt><wpt lat="20.777304" lon="-156.522624"><ele>21.859251</ele><time>2024-06-17T02:54:18Z</time><name>773</name><sym>Flag, Blue</sym></wpt><wpt lat="20.777254" lon="-156.522571"><ele>19.139832</ele><time>2024-06-17T03:16:32Z</time><name>774</name><sym>Flag, Blue</sym></wpt></gpx>