<?xml version="1.0" encoding="UTF-8" standalone="no" ?><gpx xmlns="http://www.topografix.com/GPX/1/1" xmlns:gpxx="http://www.garmin.com/xmlschemas/GpxExtensions/v3" xmlns:wptx1="http://www.garmin.com/xmlschemas/WaypointExtension/v1" xmlns:gpxtpx="http://www.garmin.com/xmlschemas/TrackPointExtension/v1" creator="GPSMAP 78sc" version="1.1" xmlns:xsi="http://www.w3.org/2001/XMLSchema-instance" xsi:schemaLocation="http://www.topografix.com/GPX/1/1 http://www.topografix.com/GPX/1/1/gpx.xsd http://www.garmin.com/xmlschemas/GpxExtensions/v3 http://www8.garmin.com/xmlschemas/GpxExtensionsv3.xsd http://www.garmin.com/xmlschemas/TrackStatsExtension/v1 http://www8.garmin.com/xmlschemas/TrackStatsExtension.xsd http://www.garmin.com/xmlschemas/WaypointExtension/v1 http://www8.garmin.com/xmlschemas/WaypointExtensionv1.xsd http://www.garmin.com/xmlschemas/TrackPointExtension/v1 http://www.garmin.com/xmlschemas/TrackPointExtensionv1.xsd"><metadata><link href="http://www.garmin.com"><text>Garmin International</text></link><time>2024-06-15T18:54:34Z</time></metadata><wpt lat="20.861521" lon="-156.148637"><ele>6.604785</ele><time>2024-06-15T18:54:34Z</time><name>652</name><sym>Flag, Blue</sym></wpt><wpt lat="20.861502" lon="-156.148672"><ele>11.746397</ele><time>2024-06-15T18:55:05Z</time><name>653</name><sym>Flag, Blue</sym></wpt><wpt lat="20.861482" lon="-156.148677"><ele>12.306541</ele><time>2024-06-15T18:55:15Z</time><name>654</name><sym>Flag, Blue</sym></wpt><wpt lat="20.861461" lon="-156.148710"><ele>11.843553</ele><time>2024-06-15T18:58:26Z</time><name>655</name><sym>Flag, Blue</sym></wpt><wpt lat="20.861454" lon="-156.148732"><ele>9.532805</ele><time>2024-06-15T18:58:55Z</time><name>656</name><sym>Flag, Blue</sym></wpt><wpt lat="20.861467" lon="-156.148731"><ele>9.134653</ele><time>2024-06-15T19:01:39Z</time><name>657</name><sym>Flag, Blue</sym></wpt><wpt lat="20.861453" lon="-156.148762"><ele>11.683498</ele><time>2024-06-15T19:02:26Z</time><name>658</name><sym>Flag, Blue</sym></wpt><wpt lat="20.861452" lon="-156.148785"><ele>11.436599</ele><time>2024-06-15T19:02:57Z</time><name>659</name><sym>Flag, Blue</sym></wpt><wpt lat="20.861431" lon="-156.148810"><ele>11.381917</ele><time>2024-06-15T19:07:37Z</time><name>660</name><sym>Flag, Blue</sym></wpt><wpt lat="20.861432" lon="-156.148823"><ele>13.243835</ele><time>2024-06-15T19:09:34Z</time><name>661</name><sym>Flag, Blue</sym></wpt><wpt lat="20.861446" lon="-156.148837"><ele>9.456576</ele><time>2024-06-15T19:14:28Z</time><name>662</name><sym>Flag, Blue</sym></wpt><wpt lat="20.861462" lon="-156.148863"><ele>3.492258</ele><time>2024-06-15T19:14:45Z</time><name>663</name><sym>Flag, Blue</sym></wpt><wpt lat="20.861449" lon="-156.148878"><ele>9.440795</ele><time>2024-06-15T19:15:04Z</time><name>664</name><sym>Flag, Blue</sym></wpt><wpt lat="20.861426" lon="-156.148900"><ele>14.172313</ele><time>2024-06-15T19:15:55Z</time><name>665</name><sym>Flag, Blue</sym></wpt><wpt lat="20.861430" lon="-156.148923"><ele>13.820110</ele><time>2024-06-15T19:17:46Z</time><name>666</name><sym>Flag, Blue</sym></wpt><wpt lat="20.861427" lon="-156.148947"><ele>14.146848</ele><time>2024-06-15T19:18:12Z</time><name>667</name><sym>Flag, Blue</sym></wpt><wpt lat="20.861425" lon="-156.148972"><ele>10.968409</ele><time>2024-06-15T19:19:07Z</time><name>668</name><sym>Flag, Blue</sym></wpt><wpt lat="20.861449" lon="-156.148988"><ele>15.294033</ele><time>2024-06-15T19:20:42Z</time><name>669</name><sym>Flag, Blue</sym></wpt><wpt lat="20.861437" lon="-156.148984"><ele>13.899217</ele><time>2024-06-15T19:23:54Z</time><name>670</name><sym>Flag, Blue</sym></wpt><wpt lat="20.861447" lon="-156.149003"><ele>13.785733</ele><time>2024-06-15T19:24:32Z</time><name>671</name><sym>Flag, Blue</sym></wpt><wpt lat="20.861418" lon="-156.148998"><ele>16.947359</ele><time>2024-06-15T19:25:21Z</time><name>672</name><sym>Flag, Blue</sym></wpt><wpt lat="20.861433" lon="-156.149036"><ele>15.529390</ele><time>2024-06-15T19:26:19Z</time><name>673</name><sym>Flag, Blue</sym></wpt><wpt lat="20.861411" lon="-156.149037"><ele>16.738863</ele><time>2024-06-15T19:28:43Z</time><name>674</name><sym>Flag, Blue</sym></wpt><wpt lat="20.861424" lon="-156.149072"><ele>15.861283</ele><time>2024-06-15T19:29:31Z</time><name>675</name><sym>Flag, Blue</sym></wpt><wpt lat="20.861441" lon="-156.149117"><ele>14.452480</ele><time>2024-06-15T19:31:10Z</time><name>676</name><sym>Flag, Blue</sym></wpt><wpt lat="20.861418" lon="-156.149122"><ele>15.347656</ele><time>2024-06-15T19:34:25Z</time><name>677</name><sym>Flag, Blue</sym></wpt><wpt lat="20.861435" lon="-156.149128"><ele>15.025494</ele><time>2024-06-15T19:35:18Z</time><name>678</name><sym>Flag, Blue</sym></wpt><wpt lat="20.861470" lon="-156.149180"><ele>13.416828</ele><time>2024-06-15T19:35:59Z</time><name>679</name><sym>Flag, Blue</sym></wpt><wpt lat="20.861453" lon="-156.149183"><ele>16.115307</ele><time>2024-06-15T19:36:48Z</time><name>680</name><sym>Flag, Blue</sym></wpt><wpt lat="20.861444" lon="-156.149192"><ele>15.964764</ele><time>2024-06-15T19:38:18Z</time><name>681</name><sym>Flag, Blue</sym></wpt><wpt lat="20.861468" lon="-156.149224"><ele>15.869846</ele><time>2024-06-15T19:40:14Z</time><name>682</name><sym>Flag, Blue</sym></wpt><wpt lat="20.861465" lon="-156.149255"><ele>14.081761</ele><time>2024-06-15T19:41:47Z</time><name>683</name><sym>Flag, Blue</sym></wpt><wpt lat="20.861491" lon="-156.149251"><ele>13.627358</ele><time>2024-06-15T19:43:29Z</time><name>684</name><sym>Flag, Blue</sym></wpt><wpt lat="20.861462" lon="-156.149267"><ele>16.664434</ele><time>2024-06-15T19:44:51Z</time><name>685</name><sym>Flag, Blue</sym></wpt><wpt lat="20.861415" lon="-156.149282"><ele>15.578909</ele><time>2024-06-15T19:45:29Z</time><name>686</name><sym>Flag, Blue</sym></wpt><wpt lat="20.861454" lon="-156.149327"><ele>13.878548</ele><time>2024-06-15T19:46:19Z</time><name>687</name><sym>Flag, Blue</sym></wpt><wpt lat="20.861427" lon="-156.149327"><ele>15.257375</ele><time>2024-06-15T19:47:11Z</time><name>688</name><sym>Flag, Blue</sym></wpt><wpt lat="20.861464" lon="-156.149329"><ele>16.796465</ele><time>2024-06-15T19:48:27Z</time><name>689</name><sym>Flag, Blue</sym></wpt><wpt lat="20.861426" lon="-156.149370"><ele>18.453661</ele><time>2024-06-15T19:50:15Z</time><name>690</name><sym>Flag, Blue</sym></wpt><wpt lat="20.861455" lon="-156.149380"><ele>16.591299</ele><time>2024-06-15T19:51:50Z</time><name>691</name><sym>Flag, Blue</sym></wpt><wpt lat="20.861465" lon="-156.149407"><ele>17.485733</ele><time>2024-06-15T19:52:19Z</time><name>692</name><sym>Flag, Blue</sym></wpt><wpt lat="20.861435" lon="-156.149422"><ele>16.568613</ele><time>2024-06-15T19:53:35Z</time><name>693</name><sym>Flag, Blue</sym></wpt><wpt lat="20.861445" lon="-156.149440"><ele>16.745506</ele><time>2024-06-15T19:53:57Z</time><name>694</name><sym>Flag, Blue</sym></wpt><wpt lat="20.861819" lon="-156.166580"><ele>9.551032</ele><time>2024-06-15T23:12:46Z</time><name>695</name><sym>Flag, Blue</sym></wpt><wpt lat="20.861840" lon="-156.166577"><ele>22.087410</ele><time>2024-06-15T23:51:19Z</time><name>696</name><sym>Flag, Blue</sym></wpt><wpt lat="20.862050" lon="-156.166665"><ele>13.695450</ele><time>2024-06-16T00:03:49Z</time><name>697</name><sym>Flag, Blue</sym></wpt><wpt lat="20.862064" lon="-156.166638"><ele>10.456292</ele><time>2024-06-16T00:51:42Z</time><name>698</name><sym>Flag, Blue</sym></wpt></gpx>